{"fetched_at":"2026-03-30T09:12:31Z","count":15922,"tles":[{"name":"SHIJIAN-30A (SJ-30A)","line1":"1 66545U 25266A   26087.78710787  .00010168  00000+0  54589-3 0  9994","line2":"2 66545  51.7985 196.0194 0011648 355.0676   5.0183 15.15434500 19662","category":"Other"}]}